MALLIGYONG-1            
1 58400U 23179A   24283.55077988  .00011809  00000+0  53135-3 0  9995
2 58400  97.3839 168.3957 0009705  43.9462 316.2544 15.21207992 49114
